[{"OBJECT_NAME":"METEOR-M2 3","OBJECT_ID":"2023-091A","EPOCH":"2026-03-09T22:59:41.369280","MEAN_MOTION":14.24037691,"ECCENTRICITY":0.000511,"INCLINATION":98.6213,"RA_OF_ASC_NODE":125.9119,"ARG_OF_PERICENTER":98.6128,"MEAN_ANOMALY":261.563,"EPHEMERIS_TYPE":0,"CLASSIFICATION_TYPE":"U","NORAD_CAT_ID":57166,"ELEMENT_SET_NO":999,"REV_AT_EPOCH":14039,"BSTAR":2.3891208e-5,"MEAN_MOTION_DOT":1.2e-7,"MEAN_MOTION_DDOT":0},{"OBJECT_NAME":"CZ-6A DEB","OBJECT_ID":"2024-140EP","EPOCH":"2026-03-09T14:31:41.073600","MEAN_MOTION":14.26761123,"ECCENTRICITY":0.0021069,"INCLINATION":88.9424,"RA_OF_ASC_NODE":281.5918,"ARG_OF_PERICENTER":73.7727,"MEAN_ANOMALY":286.5783,"EPHEMERIS_TYPE":0,"CLASSIFICATION_TYPE":"U","NORAD_CAT_ID":60764,"ELEMENT_SET_NO":999,"REV_AT_EPOCH":8187,"BSTAR":0.00016834,"MEAN_MOTION_DOT":4.23e-6,"MEAN_MOTION_DDOT":0}]
